0 FENGYUN 1C DEB
1 31092U 99025BGN 13279.19899433  .00000484  00000-0  70101-3 0  7534
2 31092 099.7098 182.7661 0346126 279.6216 238.0987 13.38662360322838
0 FENGYUN 1C DEB
1 31092U 99025BGN 13282.69045500  .00000505  00000-0  72819-3 0  7544
2 31092 099.7122 186.1118 0346189 271.1010 144.1053 13.38666582323303
0 FENGYUN 1C DEB
1 31092U 99025BGN 13287.69287314  .00000619  00000-0  88057-3 0  7558
2 31092 099.7112 190.9052 0345686 258.8788 131.8334 13.38672958323979
0 FENGYUN 1C DEB
1 31092U 99025BGN 13292.69899834  .00000658  00000-0  93187-3 0  7564
2 31092 099.7100 195.7016 0345665 246.6328 137.5589 13.38679467324643
